UBI,UBID,GBA,BLDGS,Address,Owner,City,State,Zip,Property Type,AYB_YearBuilt
10107/71db4,https://ubid.org/0904-7938,"264,949",1,120243 E True Lane,MileStone Community Builders,EnergyTown,Illinois,10107-7915,COMMERCIAL,1825
10107/c6596,https://ubid.org/55154-3382,"322,701",1,95373 E Peach Avenue,Pangea Properties,EnergyTown,Illinois,10107-1544,COMMERCIAL,1962
Not Available,https://ubid.org/62742-4061,"139,835",1,95864 SW Cottonwood Court,Matt Martin Real Estate Management,EnergyTown,Illinois,10106-7162,RESIDENTIAL-MULTI FAMILY,1965
not applicable,https://ubid.org/0904-6121,"194,395",1,155371 W Cherry Loop,Celerity Ventures,EnergyTown,Illinois,10103-3578,COMMERCIAL,1967
n/a,https://ubid.org/54569-1519,"67,269",1,180821 S Tyler Lane,Marketplace Homes,EnergyTown,Illinois,10106-8191,RESIDENTIAL-MULTI FAMILY,1965
10104/fa70d,https://ubid.org/49035-397,"100,654",1,124217 W Horsechestnut Boulevard,Apartment List,EnergyTown,Illinois,10104-5427,COMMERCIAL,1967
10103/6a6b9,https://ubid.org/52533-028,"296,432",1,155830 SW Garfield Way,Econohomes,EnergyTown,Illinois,10103-5455,RESIDENTIAL-MULTI FAMILY,1965
10101/3b748,https://ubid.org/0781-3052,"390,302",1,134217 SE Kennedy Lane,PropertyRate,EnergyTown,Illinois,10101-4786,COMMERCIAL CONDO,
10102/b0dbc,https://ubid.org/0093-7485,"373,152",1,92496 E Tangarine Boulevard,Landmark Network,EnergyTown,Illinois,10102-8803,COMMERCIAL,1975
10108/335e9,https://ubid.org/43063-220,"271,912",1,180702 N Horsechestnut Loop,Memphis Invest,EnergyTown,Illinois,10108-5971,COMMERCIAL,1978
10106/913a0,https://ubid.org/61919-129,"337,844",1,94734 SE Honeylocust Street,ACT Appraisal,EnergyTown,Illinois,10106-4994,CONDO,
10108/9ec27,https://ubid.org/49349-700,"225,829",1,159308 SE Sycamore Court,Innotion Enterprises,EnergyTown,Illinois,10108-8006,HOTELS/MOTELS,1978
10101/f5ad2,https://ubid.org/24488-020,"272,997",1,129218 N Palm Highway,The Force Realty,EnergyTown,Illinois,10101-1619,CONDO,
10107/5bff1,https://ubid.org/64942-1122,"379,591",1,44166 S Hoover Alley,PalmerHouse Properties,EnergyTown,Illinois,10107-6822,RESIDENTIAL-MULTI FAMILY,1966
10106/d0285,https://ubid.org/62171-020,"86,627",1,48633 NE Papaya Lane,CoesterVMS,EnergyTown,Illinois,10106-8933,RESIDENTIAL-MULTI FAMILY,1957
10104/94bd8,https://ubid.org/50436-6925,"125,131",1,231069 SW True Way,Hawaii Life,EnergyTown,Illinois,10104-3290,HOTELS/MOTELS,1957
10101/6e866,https://ubid.org/67046-110,"298,654",1,90274 SW Madrone Court,Apex Home Loans,EnergyTown,Illinois,10101-2886,CONDO,
10106/f06b7,https://ubid.org/0093-7299,"87,271",1,238539 SE Willow Street,Stress Free Property Management,EnergyTown,Illinois,10106-9457,CONDO,
10105/d237c,https://ubid.org/35418-801,"256,003",1,80219 SW Mandarin Court,Fairplay Financial,EnergyTown,Illinois,10105-7949,COMMERCIAL,1959
10107/a127a,https://ubid.org/36987-1217,"181,115",1,119134 SE Lemon Highway,Nationwide Appraisal Network,EnergyTown,Illinois,10107-5333,COMMERCIAL,1986
10101/6fcb5,https://ubid.org/62175-897,"292,974",1,232204 SW Taylor Highway,Robert Paul Properties,EnergyTown,Illinois,10101-9602,COMMERCIAL,1983
10109/f6ce2,https://ubid.org/60986-2025,"177,426",1,67162 SE Incense Lane,Trulia,EnergyTown,Illinois,10109-2252,HOTELS/MOTELS,1985
10103/9dcbf,https://ubid.org/62037-599,"333,188",1,214831 SW Cypress Boulevard,The Ruby Group,EnergyTown,Illinois,10103-6843,COMMERCIAL,1986
10102/aa5a9,https://ubid.org/62362-012,"344,019",1,179646 SW Date Highway,Valuation Management Group,EnergyTown,Illinois,10102-7607,COMMERCIAL CONDO,
10104/c5be7,https://ubid.org/33261-852,"270,366",1,206055 S Clementine Boulevard,Hipercept,EnergyTown,Illinois,10104-8059,RESIDENTIAL-MULTI FAMILY,2005
10108/cfa5b,https://ubid.org/63868-164,"186,905",1,197616 NE Garfield Avenue,Accurate Group,EnergyTown,Illinois,10108-4184,CONDO,
10109/a4dc5,https://ubid.org/0095-9090,"161,964",1,197709 E Pineapple Highway,Nest Realty,EnergyTown,Illinois,10109-2482,CONDO,
10105/fd160,https://ubid.org/68788-9895,"104,349",1,9773 N Citron Loop,JWB Real Estate Companies,EnergyTown,Illinois,10105-4684,COMMERCIAL,1991
10105/e565e,https://ubid.org/49349-360,249090sf,1,28660 E Polk Road,Real Property Management,EnergyTown,Illinois,10105-1441,RESIDENTIAL-MULTI FAMILY,1959
10101/51bc2,https://ubid.org/24385-061,"319,123",1,179923 NE Washington Avenue,Distinctive Properties,EnergyTown,Illinois,10101-5472,RESIDENTIAL-MULTI FAMILY,1962
10105/ce1a8,https://ubid.org/55111-158,"258,869",1,108393 N Grapefruit Court,Clear Title Agency of AZ,EnergyTown,Illinois,10105-8589,HOTELS/MOTELS,1950
10105/3f900,https://ubid.org/50419-777,"224,362",1,131175 SW Chestnut Road,Trust Field Services,EnergyTown,Illinois,10105-6695,COMMERCIAL CONDO,
10102/a5c26,https://ubid.org/13630-0024,"191,472",1,170525 E Pine Way,GRS Group,EnergyTown,Illinois,10102-8531,RESIDENTIAL-MULTI FAMILY,1959
10101/f67f2,https://ubid.org/55700-020,"327,974",1,192896 SE Peach Court,Renters Warehouse,EnergyTown,Illinois,10101-5570,CONDO,
10101/99db8,https://ubid.org/55154-5494,"195,267",1,194087 SE Fillmore Street,Reliant Realty,EnergyTown,Illinois,10101-1978,HOTELS/MOTELS,1960
10103/da53a,https://ubid.org/64679-669,"310,018",1,73377 W Polk Way,Meridian Pacific Properties,EnergyTown,Illinois,10103-8731,HOTELS/MOTELS,1973
10101/7a520,https://ubid.org/0069-0135,"104,609",1,130834 N Dogwood Boulevard,Guaranteed Rate,EnergyTown,Illinois,10101-2696,RESIDENTIAL-MULTI FAMILY,1957
10102/72f1a,https://ubid.org/57955-0088,"64,703",1,206661 S Myrtle Boulevard,JMA Properties,EnergyTown,Illinois,10102-9427,CONDO,
10101/5c8a6,https://ubid.org/43853-0002,"386,463",1,142141 NW Maple Alley,NTP Wireless,EnergyTown,Illinois,10101-4479,COMMERCIAL,1993
10109/285ec,https://ubid.org/67544-581,"311,855",1,152387 W McKinley Alley,Teles Properties,EnergyTown,Illinois,10109-4563,RESIDENTIAL-MULTI FAMILY,1961
10104/539ad,https://ubid.org/21221-001,"318,926",1,209658 NE Chinkapin Alley,Kinder Reese,EnergyTown,Illinois,10104-6703,RESIDENTIAL-MULTI FAMILY,1956
10105/b78f0,https://ubid.org/11523-1125,"213,153",1,59788 NW Pineapple Alley,Cal-American Homes,EnergyTown,Illinois,10105-9902,RESIDENTIAL-MULTI FAMILY,1969
10107/fa39d,https://ubid.org/61715-129,"63,573",1,3822 SE Cantaloupe Avenue,ePropertySites.com,EnergyTown,Illinois,10107-4333,CONDO,
10110/4bdaf,https://ubid.org/36987-2037,"315,077",1,23255 NW Buchanan Highway,NathanTabor.com,EnergyTown,Illinois,10110-7042,COMMERCIAL,1986
10105/1c351,https://ubid.org/0574-2103,"322,506",1,148420 S Pineapple Boulevard,Urban Lending Solutions,EnergyTown,Illinois,10105-4400,COMMERCIAL,1981
10110/4df66,https://ubid.org/0472-0380,"156,848",1,158538 S Monroe Court,Keller Williams Capital Properties,EnergyTown,Illinois,10110-4120,HOTELS/MOTELS,0
10107/98676,https://ubid.org/60429-759,"170,850",1,70927 NE Papaya Street,Real Capital Markets,EnergyTown,Illinois,10107-9016,COMMERCIAL CONDO,
10104/c2398,https://ubid.org/50268-750,"386,642",1,191122 SE Tanoak Street,DLP Realty,EnergyTown,Illinois,10104-6412,COMMERCIAL CONDO,
10107/757a5,https://ubid.org/60512-6153,"355,043",1,235480 SW Tangarine Boulevard,World Wide Land Transfer,EnergyTown,Illinois,10107-5527,COMMERCIAL,1983
10104/c73d9,https://ubid.org/68703-036,"340,751",1,73707 E Mahogany Street,HousingWire,EnergyTown,Illinois,10104-8560,HOTELS/MOTELS,1984
10106/1775c,https://ubid.org/11673-958,"319,967",1,191551 W Roosevelt Boulevard,Nationwide Title Clearing,EnergyTown,Illinois,10106-1246,CONDO,
10106/4710a,https://ubid.org/0093-1076,"94,169",1,165559 W Hoover Avenue,Platinum Realty,EnergyTown,Illinois,10106-1985,COMMERCIAL,1925
10107/d0974,https://ubid.org/50436-8000,"168,445",1,158986 W Truman Lane,US Appraisal Group,EnergyTown,Illinois,10107-1828,CONDO,
10109/975d0,https://ubid.org/64679-217,"303,458",1,63942 N Buckthorn Road,The Menkiti Group,EnergyTown,Illinois,10109-6074,COMMERCIAL,2002
10107/5407a,https://ubid.org/0781-4003,"347,027",1,131334 W Poplar Alley,Elite Pacific Properties,EnergyTown,Illinois,10107-4433,COMMERCIAL,1973
10108/6c338,https://ubid.org/51672-4036,"195,193",1,66867 W Tangarine Highway,Samuel Scott Financial Group,EnergyTown,Illinois,10108-1981,COMMERCIAL,1994
10102/8600f,https://ubid.org/43596-0017,"219,626",1,234002 SW Wilson Lane,Professinal Home Buyers,EnergyTown,Illinois,10102-1972,COMMERCIAL,2001
10106/38a23,https://ubid.org/55154-1175,"94,517",1,3154 SE Pears Street,Maximum One Realty Greater Atlanta,EnergyTown,Illinois,10106-4952,COMMERCIAL,2003
10107/22648,https://ubid.org/69195-1001,"64,006",1,6185 NW Wilson Road,Streetsense,EnergyTown,Illinois,10107-3722,RESIDENTIAL-MULTI FAMILY,1995
10110/9e558,https://ubid.org/54868-1791,"346,512",1,209412 SE Taft Lane,Boulder Creek Builders,EnergyTown,Illinois,10110-8769,COMMERCIAL,1922
10110/e438f,https://ubid.org/0173-0712,"265,462",1,142735 N Clinton Alley,ATG Title,EnergyTown,Illinois,10110-6459,HOTELS/MOTELS,1986
10101/230e0,https://ubid.org/49999-812,"59,341",1,241773 W Apples Avenue,LGI Development,EnergyTown,Illinois,10101-6175,COMMERCIAL,1982
10106/88d21,https://ubid.org/61715-053,"178,928",1,242511 S Palm Lane,Tim O'Brien Homes,EnergyTown,Illinois,10106-7084,CONDO,
10107/4692c,https://ubid.org/41520-123,"287,262",1,196013 S Jackson Highway,McGeough Lamacchia Realty,EnergyTown,Illinois,10107-2859,CONDO,
10108/5df28,https://ubid.org/54092-519,"77,033",1,78018 SE Citron Alley,Bean Group,EnergyTown,Illinois,10108-7872,HOTELS/MOTELS,1964
10109/dfab7,https://ubid.org/41250-884,"391,949",1,131135 W Spruce Way,Gorilla Capital,EnergyTown,Illinois,10109-8250,COMMERCIAL,2011
10104/53c6f,https://ubid.org/55714-4553,"230,213",1,82667 E Ash Street,1st Equity,EnergyTown,Illinois,10104-5512,COMMERCIAL CONDO,
10102/e3545,https://ubid.org/55154-5071,"142,577",1,183943 S Horsechestnut Highway,Realty ONE Group,EnergyTown,Illinois,10102-1646,COMMERCIAL,1939
10105/10bcf,https://ubid.org/36987-2965,"289,605",10,232960 NW Filbert Road,Asset Realty Group,EnergyTown,Illinois,10105-6863,COMMERCIAL,1900
10109/66f8f,https://ubid.org/49546-106,"105,536",1,98479 S Myrtle Loop,Movoto,EnergyTown,Illinois,10109-2021,COMMERCIAL,2003
10107/ff74d,https://ubid.org/42507-321,"372,631",1,149686 W Apricots Road,American Eagle Mortgage,EnergyTown,Illinois,10107-9705,COMMERCIAL,1975
10101/2e66d,https://ubid.org/68828-146,"234,831",1,243909 SW Taft Boulevard,@Properties,EnergyTown,Illinois,10101-9544,COMMERCIAL,1965
10101/1f7f1,https://ubid.org/55910-823,"51,688",3,90256 S Cantaloupe Court,Conservice,EnergyTown,Illinois,10101-4370,COMMERCIAL,1910
10103/16a90,https://ubid.org/67457-221,"351,585",1,43598 W Tanoak Boulevard,HomeSmart,EnergyTown,Illinois,10103-4839,HOTELS/MOTELS,1927
10105/4ef5e,https://ubid.org/52125-378,"67,334",1,75520 E Buckthorn Boulevard,MG Properties Group,EnergyTown,Illinois,10105-7397,HOTELS/MOTELS,1965
10109/50d5a,https://ubid.org/61957-1500,"398,192",1,90646 N Cypress Boulevard,Pacific Union International,EnergyTown,Illinois,10109-5848,RESIDENTIAL-MULTI FAMILY,1951
10103/f1a07,https://ubid.org/0591-3359,"114,094",1,68425 NE Cleveland Highway,Sperry Van Ness International,EnergyTown,Illinois,10103-7996,CONDO,
10108/2a65c,https://ubid.org/76509-050,"388,983",1,98181 N Avocado Loop,Asset Plus Companies,EnergyTown,Illinois,10108-9910,RESIDENTIAL-MULTI FAMILY,1975
10105/d53e4,https://ubid.org/49288-0056,"187,821",1,144346 E Roosevelt Boulevard,Prudential Americana Group Realtors,EnergyTown,Illinois,10105-9915,COMMERCIAL,1941
10107/d18cc,https://ubid.org/61957-2106,"64,123",1,235615 W Grapefruit Way,ISGN,EnergyTown,Illinois,10107-2802,COMMERCIAL,1985
10108/4e113,https://ubid.org/52125-391,"86,778",1,172060 SE Holly Court,Kidder Mathews,EnergyTown,Illinois,10108-6192,COMMERCIAL,1989
10107/30b57,https://ubid.org/53499-0190,"114,393",1,145829 NW Yew Boulevard,Levrose Commercial Real Estate,EnergyTown,Illinois,10107-6906,COMMERCIAL,1980
10107/4c3d7,https://ubid.org/0115-5311,240854sf,1,87210 NE Peach Street,Pro Teck Valuation Services,EnergyTown,Illinois,10107-9721,CONDO,
10109/447c3,https://ubid.org/66949-875,"112,116",1,200072 W Orange Court,The Mount Vernon Company,EnergyTown,Illinois,10109-4168,CONDO,
10105/9bfac,https://ubid.org/58668-1409,"157,413",1,174224 SE Eisenhower Lane,Select Office Suites,EnergyTown,Illinois,10105-3144,CONDO,
10107/b8a5f,https://ubid.org/57955-0420,"355,932",1,26713 E Van Buren Highway,Schmidt Real Estate,EnergyTown,Illinois,10107-3722,HOTELS/MOTELS,1989
10102/f69dc,https://ubid.org/61786-019,"205,231",1,238533 W Pine Road,Oakbrook,EnergyTown,Illinois,10102-2584,RESIDENTIAL-MULTI FAMILY,1965
10107/dc778,https://ubid.org/49999-090,"61,650",1,51538 E Juniper Lane,ERA Sunrise Realty,EnergyTown,Illinois,10107-5279,HOTELS/MOTELS,1980
10103/5a815,https://ubid.org/52125-161,"383,246",1,117582 N Ash Alley,Keller Williams Realty,EnergyTown,Illinois,10103-1176,COMMERCIAL,1969
10109/e6987,https://ubid.org/50458-550,"167,971",1,200564 SW Catalpa Road,CWS Corporate Leasing,EnergyTown,Illinois,10109-9885,COMMERCIAL,1978
10106/3b0d7,https://ubid.org/41250-422,"67,425",1,236444 W Larch Avenue,Occidental Management,EnergyTown,Illinois,10106-1640,RESIDENTIAL-MULTI FAMILY,1964
10103/72037,https://ubid.org/21695-508,"154,238",1,36238 N Catalpa Loop,Morris Hardwick Schneider/Landcastle Title,EnergyTown,Illinois,10103-8588,COMMERCIAL,1966
10106/c3dbe,https://ubid.org/49288-0071,"163,712",1,164955 NE Catalpa Road,Capital Title of Texas,EnergyTown,Illinois,10106-1996,COMMERCIAL,1970
10105/43c5d,https://ubid.org/52125-472,"381,949",1,77263 E Cottonwood Lane,American Reporting,EnergyTown,Illinois,10105-3531,COMMERCIAL,1981
10103/25a9c,https://ubid.org/60905-0404,"321,167",1,181938 NW Honeydew Boulevard,Real Freedom,EnergyTown,Illinois,10103-9525,RESIDENTIAL-MULTI FAMILY,1990
10108/ed3ed,https://ubid.org/63323-173,"87,062",1,35447 E Monroe Road,Temporary Housing Directory,EnergyTown,Illinois,10108-5765,COMMERCIAL,1981
10107/57cad,https://ubid.org/36987-1455,"219,476",1,84472 N Catalpa Highway,MileStone Community Builders,EnergyTown,Illinois,10107-5663,CONDO,
10101/34a5f,https://ubid.org/43063-466,"142,331",1,219222 SW Filbert Avenue,Pangea Properties,EnergyTown,Illinois,10101-6331,COMMERCIAL,1997
10110/7fb1a,https://ubid.org/50458-395,"197,578",1,71873 W Citron Court,Matt Martin Real Estate Management,EnergyTown,Illinois,10110-2866,COMMERCIAL,1960
10102/89133,https://ubid.org/60505-0145,"290,809",1,14397 N Grapes Way,Celerity Ventures,EnergyTown,Illinois,10102-6752,COMMERCIAL,1931
10104/208f2,https://ubid.org/42952-101,"361,111",1,78024 N Filbert Highway,Marketplace Homes,EnergyTown,Illinois,10104-4274,COMMERCIAL,1966
10109/c9e41,https://ubid.org/52810-301,"250,344",1,241780 NE Sycamore Highway,Apartment List,EnergyTown,Illinois,10109-8562,COMMERCIAL,1981
10106/ea9cc,https://ubid.org/61957-2050,"151,085",1,5228 SE Nixon Road,Econohomes,EnergyTown,Illinois,10106-8605,COMMERCIAL,1967
10103/8e1ad,https://ubid.org/11822-0337,"282,409",1,209824 E California Lane,PropertyRate,EnergyTown,Illinois,10103-3376,COMMERCIAL,1971
10110/ed6b2,https://ubid.org/68016-027,"377,064",1,117200 E Melon Loop,Landmark Network,EnergyTown,Illinois,10110-7289,COMMERCIAL,1967
10102/9207d,https://ubid.org/45802-280,"212,968",1,193649 E Mandarin Alley,Memphis Invest,EnergyTown,Illinois,10102-5899,COMMERCIAL,1975
10106/86a9b,https://ubid.org/0338-1143,"379,494",1,95549 NE Oak Road,ACT Appraisal,EnergyTown,Illinois,10106-9001,COMMERCIAL,2002
10106/f062c,https://ubid.org/0338-0663,"240,750",1,86193 SE Plum Court,MileStone Community Builders,EnergyTown,Illinois,10106-6518,COMMERCIAL,1982
10102/802b7,https://ubid.org/54340-666,"165,044",3,84265 W Lemon Way,Pangea Properties,EnergyTown,Illinois,10102-7947,COMMERCIAL,1969
10105/8b173,https://ubid.org/49288-0058,"190,014",1,138016 SW Catalpa Highway,Matt Martin Real Estate Management,EnergyTown,Illinois,10105-9572,RESIDENTIAL-MULTI FAMILY,1927
10107/2eb13,https://ubid.org/63936-8508,"284,935",1,11105 SE Clinton Avenue,Celerity Ventures,EnergyTown,Illinois,10107-5905,COMMERCIAL,1987
10106/71444,https://ubid.org/0268-0116,"321,155",1,26583 NW Nixon Boulevard,Marketplace Homes,EnergyTown,Illinois,10106-6063,COMMERCIAL,1990
10104/5257a,https://ubid.org/55289-255,"51,764",1,238715 W Plantain Avenue,Apartment List,EnergyTown,Illinois,10104-1820,COMMERCIAL,1975
10105/e5764,https://ubid.org/65954-064,"203,845",1,147661 NE Washington Loop,Econohomes,EnergyTown,Illinois,10105-5803,COMMERCIAL,2000
10109/3ff91,https://ubid.org/24794-104,"383,773",1,153200 NE Tanoak Loop,PropertyRate,EnergyTown,Illinois,10109-8384,HOTELS/MOTELS,1929
10105/a1207,https://ubid.org/0363-0300,"237,089",1,144708 SE Orange Lane,Landmark Network,EnergyTown,Illinois,10105-5987,COMMERCIAL,1972
10106/8fa43,https://ubid.org/11523-7272,"380,406",1,26093 E Hazel Way,Memphis Invest,EnergyTown,Illinois,10106-9778,COMMERCIAL,1951
10102/af70d,https://ubid.org/21749-530,"266,908",1,6890 NE Roosevelt Lane,ACT Appraisal,EnergyTown,Illinois,10102-5083,COMMERCIAL,1910
10110/3e66f,https://ubid.org/0591-3754,"322,346",1,47399 NW Cherry Way,Innotion Enterprises,EnergyTown,Illinois,10110-2179,COMMERCIAL,1880
10106/7b8ae,https://ubid.org/60764-010,"136,566",1,139213 W Cottonwood Street,The Force Realty,EnergyTown,Illinois,10106-9379,COMMERCIAL,2009
10103/77192,https://ubid.org/59011-446,"70,222",1,119270 SW Garfield Way,PalmerHouse Properties,EnergyTown,Illinois,10103-7367,COMMERCIAL,1926
10107/63b18,https://ubid.org/50563-171,"203,493",1,41978 N Birch Avenue,CoesterVMS,EnergyTown,Illinois,10107-5827,HOTELS/MOTELS,1955
10103/14c96,https://ubid.org/21695-377,"379,375",3,235016 SW Melon Avenue,Hawaii Life,EnergyTown,Illinois,10103-7236,HOTELS/MOTELS,1955
10101/7100e,https://ubid.org/63004-8710,"376,622",1,4378 W Madrone Highway,Apex Home Loans,EnergyTown,Illinois,10101-5570,COMMERCIAL,1941
10106/23c97,https://ubid.org/0615-5549,"314,506",1,154343 NE Apricots Alley,Stress Free Property Management,EnergyTown,Illinois,10106-3894,RESIDENTIAL-MULTI FAMILY,1950
10108/a69ae,https://ubid.org/54868-4679,"99,145",1,27353 NE Douglas Highway,Fairplay Financial,EnergyTown,Illinois,10108-7763,COMMERCIAL,1986
10110/ca2b4,https://ubid.org/62742-4036,"340,088",1,223346 SE Redwood Avenue,Nationwide Appraisal Network,EnergyTown,Illinois,10110-1674,COMMERCIAL,1989
10102/fd96b,https://ubid.org/53942-281,"88,133",1,91558 NE Maple Street,Robert Paul Properties,EnergyTown,Illinois,10102-2990,CONDO,
10102/5b193,https://ubid.org/10191-1244,"112,442",1,203743 NE Pierce Highway,Trulia,EnergyTown,Illinois,10102-8479,COMMERCIAL,1973
10107/6cc7a,https://ubid.org/55111-699,"257,959",1,59502 NW Mahogany Avenue,The Ruby Group,EnergyTown,Illinois,10107-5124,COMMERCIAL,1982
10103/5c099,https://ubid.org/63824-730,"170,935",1,198536 W Garfield Road,Valuation Management Group,EnergyTown,Illinois,10103-9796,COMMERCIAL,1964
10104/7ef71,https://ubid.org/50201-2400,"261,765",1,99348 NE Locust Street,Hipercept,EnergyTown,Illinois,10104-2416,COMMERCIAL,0
10101/2b760,https://ubid.org/49230-640,"215,255",1,181881 E Myrtle Street,Accurate Group,EnergyTown,Illinois,10101-2717,COMMERCIAL,2009
10102/b874e,https://ubid.org/51346-164,"94,310",1,27214 E McKinley Boulevard,Nest Realty,EnergyTown,Illinois,10102-7954,COMMERCIAL,1978
10110/2591d,https://ubid.org/68788-9146,"230,146",1,147589 S Buckthorn Way,JWB Real Estate Companies,EnergyTown,Illinois,10110-1921,COMMERCIAL,1995
10102/bb665,https://ubid.org/0363-0402,"256,055",1,11722 SW Cottonwood Avenue,Real Property Management,EnergyTown,Illinois,10102-6814,COMMERCIAL,1986
10101/3ae71,https://ubid.org/56062-259,"323,298",1,12156 E Obama Court,Distinctive Properties,EnergyTown,Illinois,10101-9210,COMMERCIAL,1924
10101/59811,https://ubid.org/0268-0888,"389,386",1,68502 SW Cedar Boulevard,Clear Title Agency of AZ,EnergyTown,Illinois,10101-8415,COMMERCIAL,1969
10102/ca07a,https://ubid.org/60505-0751,"214,620",1,129400 NE Olive Loop,Trust Field Services,EnergyTown,Illinois,10102-8675,COMMERCIAL,1994
10108/7e9dc,https://ubid.org/0143-9808,"211,783",1,173580 E Buckeye Alley,GRS Group,EnergyTown,Illinois,10108-5541,COMMERCIAL,1982
10106/4cc99,https://ubid.org/0093-3043,"136,967",1,42202 SE Madrone Alley,Renters Warehouse,EnergyTown,Illinois,10106-4030,COMMERCIAL,1981
10102/d70df,https://ubid.org/68788-9055,"59,188",1,84376 SE Plum Loop,Reliant Realty,EnergyTown,Illinois,10102-1745,COMMERCIAL,1962
10108/d4bac,https://ubid.org/55910-057,"50,023",1,198398 N Fir Loop,Meridian Pacific Properties,EnergyTown,Illinois,10108-9151,HOTELS/MOTELS,1970
10106/20e9c,https://ubid.org/54868-5664,"269,625",1,83182 NW Grapefruit Court,Guaranteed Rate,EnergyTown,Illinois,10106-4529,RESIDENTIAL-MULTI FAMILY,1963
10107/25337,https://ubid.org/42507-554,"262,027",1,185235 NW Sycamore Avenue,JMA Properties,EnergyTown,Illinois,10107-5710,HOTELS/MOTELS,1963
10109/77a2d,https://ubid.org/50580-112,"254,909",1,129200 SW Coolidge Avenue,NTP Wireless,EnergyTown,Illinois,10109-9586,CONDO,
10108/1621a,https://ubid.org/55926-0022,"152,403",1,111327 N Arborvitae Way,Teles Properties,EnergyTown,Illinois,10108-4403,RESIDENTIAL-MULTI FAMILY,1968
10110/65093,https://ubid.org/76237-122,"78,080",1,56871 NW Juniper Way,Kinder Reese,EnergyTown,Illinois,10110-8760,COMMERCIAL,1969
10107/3a89a,https://ubid.org/52125-045,"364,753",1,181123 NW Clementine Lane,Cal-American Homes,EnergyTown,Illinois,10107-1250,HOTELS/MOTELS,1964
10101/8a5ce,https://ubid.org/54868-6259,"380,071",1,145770 S Van Buren Loop,ePropertySites.com,EnergyTown,Illinois,10101-2764,COMMERCIAL,1987
10103/ad875,https://ubid.org/67938-0944,"306,852",1,78615 N Tanoak Alley,NathanTabor.com,EnergyTown,Illinois,10103-7733,RESIDENTIAL-MULTI FAMILY,1964
10107/2067b,https://ubid.org/0004-0058,"333,524",1,109495 NE Sweetgum Alley,Urban Lending Solutions,EnergyTown,Illinois,10107-1804,COMMERCIAL,1969
10106/cee52,https://ubid.org/0264-1943,"81,968",1,81454 E Papaya Court,Keller Williams Capital Properties,EnergyTown,Illinois,10106-7121,COMMERCIAL,1980
10108/3b1ad,https://ubid.org/51808-203,"389,897",1,194521 S Spruce Highway,Real Capital Markets,EnergyTown,Illinois,10108-7919,COMMERCIAL,1987
10106/edc94,https://ubid.org/15127-550,"336,575",1,143563 E Dogwood Boulevard,DLP Realty,EnergyTown,Illinois,10106-7358,COMMERCIAL,1985
10108/18d12,https://ubid.org/17856-0241,"374,710",1,55014 SW Douglas Way,World Wide Land Transfer,EnergyTown,Illinois,10108-3445,COMMERCIAL,1986
10106/d1eb1,https://ubid.org/0781-1619,"176,281",1,238731 E Banana Loop,HousingWire,EnergyTown,Illinois,10106-4350,COMMERCIAL,1971
10103/e69e9,https://ubid.org/49738-480,"67,636",1,158214 NW Madison Highway,Nationwide Title Clearing,EnergyTown,Illinois,10103-9823,COMMERCIAL CONDO,
10108/7953b,https://ubid.org/60258-525,"329,865",1,59697 N Mahogany Highway,Platinum Realty,EnergyTown,Illinois,10108-6293,COMMERCIAL CONDO,
10110/b5da8,https://ubid.org/60429-250,"296,521",1,106756 W Monroe Lane,US Appraisal Group,EnergyTown,Illinois,10110-7761,COMMERCIAL,1983
10108/d5abc,https://ubid.org/0378-0872,"237,403",1,43710 SE Reagan Alley,The Menkiti Group,EnergyTown,Illinois,10108-3517,COMMERCIAL,2001
10103/5681a,https://ubid.org/60505-3675,"142,886",1,120947 SE Pierce Street,Elite Pacific Properties,EnergyTown,Illinois,10103-5219,COMMERCIAL,1910
10104/77201,https://ubid.org/42023-168,206463sf,3,160974 NW Taylor Avenue,Samuel Scott Financial Group,EnergyTown,Illinois,10104-4177,COMMERCIAL,1984
10102/c424e,https://ubid.org/30142-090,"377,544",1,236009 SW Oak Road,Professinal Home Buyers,EnergyTown,Illinois,10102-2142,RESIDENTIAL-MULTI FAMILY,0
10103/f44dd,https://ubid.org/68308-715,"378,080",1,16238 SW Obama Loop,Maximum One Realty Greater Atlanta,EnergyTown,Illinois,10103-7897,RESIDENTIAL-MULTI FAMILY,1961
10110/6e5bd,https://ubid.org/54365-400,"201,890",1,49001 W Banana Loop,Streetsense,EnergyTown,Illinois,10110-3557,RESIDENTIAL-MULTI FAMILY,1941
10110/a2335,https://ubid.org/56062-374,"104,413",1,167056 NE Arborvitae Alley,Boulder Creek Builders,EnergyTown,Illinois,10110-2887,CONDO,
10106/f5bd4,https://ubid.org/55154-1458,"327,879",1,112019 S Buchanan Court,ATG Title,EnergyTown,Illinois,10106-7142,COMMERCIAL,1978
10107/70df0,https://ubid.org/0268-6401,"158,578",1,76916 W Giant Highway,LGI Development,EnergyTown,Illinois,10107-3439,COMMERCIAL,1925
10110/917ed,https://ubid.org/59999-001,"243,136",1,96442 NE True Road,Tim O'Brien Homes,EnergyTown,Illinois,10110-5865,COMMERCIAL,2006
10102/23871,https://ubid.org/31722-539,"290,457",1,54222 S Palm Road,McGeough Lamacchia Realty,EnergyTown,Illinois,10102-9214,COMMERCIAL,1991
10101/f4ea1,https://ubid.org/54868-4216,"338,646",1,37052 NE Bush Street,Bean Group,EnergyTown,Illinois,10101-9234,COMMERCIAL,1964
10101/870d0,https://ubid.org/68382-423,"345,137",1,184039 S Catalpa Highway,Gorilla Capital,EnergyTown,Illinois,10101-3335,COMMERCIAL,1971
10104/719bd,https://ubid.org/67510-0057,"168,646",1,13688 SW Cordia Alley,1st Equity,EnergyTown,Illinois,10104-8405,COMMERCIAL,1980
10101/9e375,https://ubid.org/50988-454,"356,934",1,110752 W McKinley Highway,Realty ONE Group,EnergyTown,Illinois,10101-7359,COMMERCIAL,1966
10104/19138,https://ubid.org/54868-4562,"329,184",1,240102 N Hazel Alley,Asset Realty Group,EnergyTown,Illinois,10104-2266,COMMERCIAL,1969
10106/46cb5,https://ubid.org/54868-0836,"222,340",1,191776 SW Carissa Boulevard,Movoto,EnergyTown,Illinois,10106-6708,COMMERCIAL,1970
10103/59beb,https://ubid.org/16590-280,"144,031",1,165941 SW Van Buren Alley,American Eagle Mortgage,EnergyTown,Illinois,10103-4059,COMMERCIAL,2001
10104/3e728,https://ubid.org/49288-0268,"374,250",1,30937 E Cantaloupe Court,@Properties,EnergyTown,Illinois,10104-7823,RESIDENTIAL-MULTI FAMILY,1908
10109/64c88,https://ubid.org/63824-362,"133,345",1,230641 SE Maple Court,Conservice,EnergyTown,Illinois,10109-3809,RESIDENTIAL-MULTI FAMILY,1929
10103/a2db4,https://ubid.org/20276-046,"121,490",1,226595 NE Lime Loop,HomeSmart,EnergyTown,Illinois,10103-5410,COMMERCIAL,1971
10101/4d220,https://ubid.org/33261-626,"94,512",55,59001 NE Buchanan Way,MG Properties Group,EnergyTown,Illinois,10101-1284,COMMERCIAL,1923
10106/362cf,https://ubid.org/60429-152,"161,504",1,54512 E Cypress Lane,Pacific Union International,EnergyTown,Illinois,10106-6188,COMMERCIAL,1969
10109/75597,https://ubid.org/24208-629,"168,943",1,183594 E Banana Court,Sperry Van Ness International,EnergyTown,Illinois,10109-3203,COMMERCIAL,1969
10102/361fe,https://ubid.org/37000-360,"376,061",1,80564 SE Truman Road,Asset Plus Companies,EnergyTown,Illinois,10102-5682,COMMERCIAL,1971
10105/f27f8,https://ubid.org/58232-0639,"171,212",1,177539 S Sweetgum Lane,Prudential Americana Group Realtors,EnergyTown,Illinois,10105-1151,COMMERCIAL,1978
10104/79ce4,https://ubid.org/55312-355,"63,866",1,18643 SW Watermelon Alley,ISGN,EnergyTown,Illinois,10104-7477,COMMERCIAL,1978
10105/5f6fc,https://ubid.org/0363-1009,"263,071",1,31060 W Plum Highway,Kidder Mathews,EnergyTown,Illinois,10105-9738,CONDO,
10107/a5692,https://ubid.org/62037-598,"81,020",1,181056 S Johnson Street,Levrose Commercial Real Estate,EnergyTown,Illinois,10107-1535,COMMERCIAL,1967
10107/4b86f,https://ubid.org/55316-679,"318,040",1,160543 SW Catalpa Lane,Pro Teck Valuation Services,EnergyTown,Illinois,10107-4489,COMMERCIAL,1975
10110/23f17,https://ubid.org/55289-460,"310,377",1,117306 E Horsechestnut Alley,The Mount Vernon Company,EnergyTown,Illinois,10110-4572,COMMERCIAL,1980
10110/6dde5,https://ubid.org/54868-4774,"84,262",1,214269 SE Horsechestnut Loop,Select Office Suites,EnergyTown,Illinois,10110-5363,COMMERCIAL,1984
10110/b3901,https://ubid.org/51824-031,"199,416",1,154739 NW Watermelon Court,Schmidt Real Estate,EnergyTown,Illinois,10110-4056,COMMERCIAL,1964
10106/d6584,https://ubid.org/55505-167,"196,709",1,83453 SW Olive Highway,Oakbrook,EnergyTown,Illinois,10106-6040,COMMERCIAL,1986
10109/1e5ad,https://ubid.org/65121-715,"78,810",1,135287 E Roosevelt Road,ERA Sunrise Realty,EnergyTown,Illinois,10109-1389,COMMERCIAL,1969
10103/90ca7,https://ubid.org/0037-8130,"131,874",1,5151 E Honeylocust Alley,Keller Williams Realty,EnergyTown,Illinois,10103-5720,COMMERCIAL,1971
10106/9d65f,https://ubid.org/11822-0393,"243,274",1,224905 E Buchanan Loop,CWS Corporate Leasing,EnergyTown,Illinois,10106-8737,COMMERCIAL,1975
10107/d22e1,https://ubid.org/23558-6881,"370,224",1,61173 SE Willow Lane,Occidental Management,EnergyTown,Illinois,10107-5678,COMMERCIAL,1975
10104/33fef,https://ubid.org/43269-855,"161,228",1,211686 NE Pear Boulevard,Morris Hardwick Schneider/Landcastle Title,EnergyTown,Illinois,10104-3519,COMMERCIAL,1978
10104/584d6,https://ubid.org/0363-0798,"142,385",1,50518 SW Buchanan Lane,Capital Title of Texas,EnergyTown,Illinois,10104-2490,COMMERCIAL,1980
10107/1a867,https://ubid.org/68382-072,"55,913",1,81088 NW Arthur Lane,American Reporting,EnergyTown,Illinois,10107-7089,COMMERCIAL,1963
10110/65c94,https://ubid.org/44924-012,"267,578",1,105766 E Buckthorn Road,Real Freedom,EnergyTown,Illinois,10110-1072,COMMERCIAL,1984
10108/23890,https://ubid.org/49884-303,"321,198",1,126421 NW Honeylocust Street,Temporary Housing Directory,EnergyTown,Illinois,10108-3242,COMMERCIAL,1979
10106/2570a,https://ubid.org/0185-0647,"346,769",1,41950 SW Mandarin Highway,MileStone Community Builders,EnergyTown,Illinois,10106-5306,COMMERCIAL,1986
10110/7eea9,https://ubid.org/43353-828,"132,467",1,47762 E Guava Road,Pangea Properties,EnergyTown,Illinois,10110-4803,COMMERCIAL,1960
10107/65954,https://ubid.org/60505-2985,"82,973",1,134895 W Buckeye Boulevard,Matt Martin Real Estate Management,EnergyTown,Illinois,10107-1332,COMMERCIAL,2005
10101/5910c,https://ubid.org/52054-513,"390,448",1,152914 NW Cherry Avenue,Celerity Ventures,EnergyTown,Illinois,10101-8337,COMMERCIAL,1975
10101/ff7ec,https://ubid.org/68391-319,"234,587",1,194500 S Horsechestnut Boulevard,Marketplace Homes,EnergyTown,Illinois,10101-4574,COMMERCIAL,1981
10105/e4147,https://ubid.org/36800-852,"251,899",1,162444 S Chinkapin Street,Apartment List,EnergyTown,Illinois,10105-5779,GARAGE/UNIMPROVED LAND,2012
10107/6b091,https://ubid.org/36987-1161,"256,129",1,38525 E Tangarine Avenue,Econohomes,EnergyTown,Illinois,10107-6468,COMMERCIAL,1915
10109/11cf5,https://ubid.org/10096-0306,309832sf,1,146819 NW Van Buren Highway,PropertyRate,EnergyTown,Illinois,10109-2097,COMMERCIAL,2003
10103/1e706,https://ubid.org/53603-2014,304902sf,1,200071 E Plum Way,Landmark Network,EnergyTown,Illinois,10103-8111,COMMERCIAL,1928
10110/212b5,https://ubid.org/37205-570,"367,683",1,213645 E Myrtle Road,Memphis Invest,EnergyTown,Illinois,10110-5097,COMMERCIAL,1929
10101/efe3c,https://ubid.org/16729-176,"392,032",1,224774 N Cypress Alley,ACT Appraisal,EnergyTown,Illinois,10101-7921,COMMERCIAL,1969
10103/f062c,https://ubid.org/0378-9102,"365,763",1,12412 NW Clementine Avenue,Levrose Commercial Real Estate,EnergyTown,Illinois,10103-8824,COMMERCIAL,1970
10108/90bc8,https://ubid.org/64376-631,"206,659",1,27876 SW Chinkapin Street,Pro Teck Valuation Services,EnergyTown,Illinois,10108-9109,COMMERCIAL,1981
10103/884e4,https://ubid.org/16590-107,"151,268",1,65903 E Cleveland Court,The Mount Vernon Company,EnergyTown,Illinois,10103-7767,COMMERCIAL,1965
10102/95c94,https://ubid.org/42043-252,"66,318",1,35615 S Dogwood Way,Select Office Suites,EnergyTown,Illinois,10102-7433,COMMERCIAL,2001
10110/39f62,https://ubid.org/48951-8041,"335,912",1,45117 W Roosevelt Avenue,Schmidt Real Estate,EnergyTown,Illinois,10110-9579,COMMERCIAL,1927
10102/835dd,https://ubid.org/16129-001,"353,776",1,178944 W Hawthorn Alley,Oakbrook,EnergyTown,Illinois,10102-8144,COMMERCIAL,1962
10103/d92ab,https://ubid.org/58605-152,"184,417",1,73210 S Sweetgum Avenue,ERA Sunrise Realty,EnergyTown,Illinois,10103-5446,COMMERCIAL,1967
10102/ebbbc,https://ubid.org/0781-2266,"359,118",1,141564 NW Pears Boulevard,Keller Williams Realty,EnergyTown,Illinois,10102-9833,COMMERCIAL,1981
10110/43a53,https://ubid.org/62756-356,"267,640",1,76655 SE Cordia Boulevard,CWS Corporate Leasing,EnergyTown,Illinois,10110-1247,COMMERCIAL,1982
10108/b0821,https://ubid.org/17630-2004,"343,420",1,99332 SE Lime Highway,Occidental Management,EnergyTown,Illinois,10108-3123,COMMERCIAL,1988
10101/caa75,https://ubid.org/36987-2439,"212,875",1,21417 NW Ford Alley,Morris Hardwick Schneider/Landcastle Title,EnergyTown,Illinois,10101-3167,COMMERCIAL,2010
10110/efbf0,https://ubid.org/55289-707,"159,665",1,149612 W Mango Boulevard,Capital Title of Texas,EnergyTown,Illinois,10110-5315,COMMERCIAL,1955
10109/ce073,https://ubid.org/0004-0086,"163,766",1,179705 NW Madison Road,American Reporting,EnergyTown,Illinois,10109-1024,COMMERCIAL,1964
10101/cae1c,https://ubid.org/43269-877,"90,246",1,147977 W Carissa Way,Real Freedom,EnergyTown,Illinois,10101-7904,COMMERCIAL,1960
10107/ec7e9,https://ubid.org/52641-300,"272,782",1,103478 E Honeydew Lane,Temporary Housing Directory,EnergyTown,Illinois,10107-4579,COMMERCIAL,1950
10109/314bf,https://ubid.org/58060-002,"279,445",1,151403 NW Plum Way,MileStone Community Builders,EnergyTown,Illinois,10109-4862,RESIDENTIAL-MULTI FAMILY,1961
10110/6145c,https://ubid.org/63691-011,"226,245",1,236094 W Lemon Loop,Pangea Properties,EnergyTown,Illinois,10110-5059,HOTELS/MOTELS,1947
10110/29490,https://ubid.org/67544-191,"252,385",1,168581 NW Buckeye Alley,Matt Martin Real Estate Management,EnergyTown,Illinois,10110-6435,COMMERCIAL,1974
10106/691b0,https://ubid.org/52125-031,"94,646",1,122209 NE Tanoak Lane,Celerity Ventures,EnergyTown,Illinois,10106-2905,COMMERCIAL,1978
10101/5168d,https://ubid.org/11673-546,"328,575",1,96586 S Alder Lane,Marketplace Homes,EnergyTown,Illinois,10101-7820,COMMERCIAL,1926
10109/8a4e7,https://ubid.org/46581-870,"376,566",1,47878 W Madison Road,Apartment List,EnergyTown,Illinois,10109-9642,COMMERCIAL,1984
10101/132e1,https://ubid.org/44911-0028,"68,177",1,198832 SE Arthur Loop,Econohomes,EnergyTown,Illinois,10101-4795,COMMERCIAL,1956
10108/46dce,https://ubid.org/0004-0350,"354,068",1,186620 SW Van Buren Alley,PropertyRate,EnergyTown,Illinois,10108-1275,COMMERCIAL,1983
10106/30e00,https://ubid.org/49643-407,"72,629",1,14119 SE Palm Way,Landmark Network,EnergyTown,Illinois,10106-9130,COMMERCIAL,1947
10101/25e4b,https://ubid.org/52584-401,"323,725",1,162695 NW Monroe Alley,Memphis Invest,EnergyTown,Illinois,10101-8073,COMMERCIAL,1964
10104/d4122,https://ubid.org/64764-625,"233,321",1,12302 SW Garfield Court,ACT Appraisal,EnergyTown,Illinois,10104-9326,COMMERCIAL,1963
10106/a282f,https://ubid.org/43269-726,"281,797",1,91092 SE Willow Alley,Innotion Enterprises,EnergyTown,Illinois,10106-9254,HOTELS/MOTELS,1965
10107/b83bc,https://ubid.org/42002-450,"133,497",1,219121 W Poplar Alley,The Force Realty,EnergyTown,Illinois,10107-8305,COMMERCIAL,1978
10103/40e88,https://ubid.org/49348-309,"225,803",1,29724 W Buckeye Way,PalmerHouse Properties,EnergyTown,Illinois,10103-2568,COMMERCIAL,1979
10104/b6775,https://ubid.org/10742-8130,"319,046",1,186838 NE Basswood Boulevard,CoesterVMS,EnergyTown,Illinois,10104-7344,COMMERCIAL,1985
10109/e58d8,https://ubid.org/54868-4263,"398,146",1,216231 N Hazel Alley,Hawaii Life,EnergyTown,Illinois,10109-7352,COMMERCIAL,1987
10102/67bc4,https://ubid.org/37012-831,"263,526",1,147524 W Fir Boulevard,Apex Home Loans,EnergyTown,Illinois,10102-8497,COMMERCIAL,1990
10108/ef88b,https://ubid.org/49349-093,"112,101",1,24444 NW Clinton Court,Stress Free Property Management,EnergyTown,Illinois,10108-9067,COMMERCIAL,1978
10101/9280d,https://ubid.org/41163-375,"274,374",1,226375 N Truman Loop,Fairplay Financial,EnergyTown,Illinois,10101-1908,COMMERCIAL,1982
10105/e6a13,https://ubid.org/43063-284,"84,387",1,241069 SW Dogwood Highway,Nationwide Appraisal Network,EnergyTown,Illinois,10105-3321,COMMERCIAL,1980
10107/d96b8,https://ubid.org/76485-1018,"265,779",1,165800 S Olive Highway,Robert Paul Properties,EnergyTown,Illinois,10107-4001,COMMERCIAL,1955
10101/b2a57,https://ubid.org/61786-038,"122,712",1,186771 E Polk Street,Trulia,EnergyTown,Illinois,10101-1225,COMMERCIAL,1935
10110/f69a2,https://ubid.org/60429-536,"60,462",1,52524 NE Roosevelt Alley,The Ruby Group,EnergyTown,Illinois,10110-2766,COMMERCIAL,1979
10102/d2ab2,https://ubid.org/51668-502,"279,414",1,58027 NW Apricots Court,Valuation Management Group,EnergyTown,Illinois,10102-5461,COMMERCIAL,1965
10101/4fa4d,https://ubid.org/42926-010,"359,601",1,57318 SE Wilson Loop,Hipercept,EnergyTown,Illinois,10101-1505,COMMERCIAL,1909
10109/8ea35,https://ubid.org/61096-0027,"252,930",1,190741 NW Aspen Alley,Accurate Group,EnergyTown,Illinois,10109-5278,HOTELS/MOTELS,1940
10103/9971f,https://ubid.org/41616-760,"284,692",1,110271 S Tyler Lane,Nest Realty,EnergyTown,Illinois,10103-6146,CONDO,
10101/5b284,https://ubid.org/52584-875,"397,747",1,83980 SE Chestnut Boulevard,JWB Real Estate Companies,EnergyTown,Illinois,10101-2509,RESIDENTIAL-MULTI FAMILY,1916
10104/75084,https://ubid.org/53341-056,"192,764",1,1469 E Buckthorn Alley,Real Property Management,EnergyTown,Illinois,10104-9172,RESIDENTIAL-MULTI FAMILY,1917
10107/14cc2,https://ubid.org/63843-509,"321,604",1,108988 SE True Highway,Distinctive Properties,EnergyTown,Illinois,10107-4780,CONDO,
10101/9db07,https://ubid.org/43742-0105,"73,993",1,101108 SW Sycamore Avenue,Clear Title Agency of AZ,EnergyTown,Illinois,10101-4188,RESIDENTIAL-MULTI FAMILY,1914
10101/5f8be,https://ubid.org/0615-0331,"201,516",1,113857 SW Pear Street,Trust Field Services,EnergyTown,Illinois,10101-2521,COMMERCIAL,1919
10101/909fd,https://ubid.org/49035-142,"296,318",1,131438 E Cypress Boulevard,GRS Group,EnergyTown,Illinois,10101-9431,RESIDENTIAL-MULTI FAMILY,1939
10104/92baf,https://ubid.org/64725-0193,"216,136",1,20288 NW Obama Boulevard,Renters Warehouse,EnergyTown,Illinois,10104-2970,COMMERCIAL,1963
10106/d4150,https://ubid.org/54868-4149,"80,284",1,126382 SW Giant Lane,Reliant Realty,EnergyTown,Illinois,10106-2863,COMMERCIAL,1959
10110/eb54e,https://ubid.org/15127-925,"236,965",1,93624 N Alder Way,Meridian Pacific Properties,EnergyTown,Illinois,10110-5561,COMMERCIAL,1997
10110/5f905,https://ubid.org/0363-0140,"66,188",1,92910 NW Papaya Court,Guaranteed Rate,EnergyTown,Illinois,10110-6668,RESIDENTIAL-MULTI FAMILY,0
10104/af3b8,https://ubid.org/25021-662,"159,512",1,217490 S Bush Way,JMA Properties,EnergyTown,Illinois,10104-4338,CONDO,
10107/a1bc5,https://ubid.org/49643-394,"111,677",1,174743 SW True Highway,NTP Wireless,EnergyTown,Illinois,10107-6589,CONDO,
10107/89991,https://ubid.org/43337-9328,"127,884",1,25230 W True Loop,Teles Properties,EnergyTown,Illinois,10107-9825,CONDO,
10106/1cd18,https://ubid.org/0781-3136,"231,495",1,53888 E Sycamore Loop,Kinder Reese,EnergyTown,Illinois,10106-8683,COMMERCIAL,1968
10102/b1dc3,https://ubid.org/60505-2795,"355,744",1,79794 NW Hayes Loop,Cal-American Homes,EnergyTown,Illinois,10102-2681,COMMERCIAL,1970
10102/6a342,https://ubid.org/65342-1395,"318,796",1,104558 E Tyler Loop,ePropertySites.com,EnergyTown,Illinois,10102-9503,COMMERCIAL,1981
10102/feaac,https://ubid.org/10812-399,"187,528",1,22305 W California Way,NathanTabor.com,EnergyTown,Illinois,10102-1794,COMMERCIAL,1962
10102/521c9,https://ubid.org/16590-660,"172,192",1,99258 S Cottonwood Alley,Urban Lending Solutions,EnergyTown,Illinois,10102-9359,HOTELS/MOTELS,1964
10108/940d4,https://ubid.org/0023-9205,"346,716",1,202915 NE Papaya Avenue,Keller Williams Capital Properties,EnergyTown,Illinois,10108-7954,COMMERCIAL CONDO,
10107/d1bae,https://ubid.org/68745-2028,"183,320",1,102708 W Watermelon Lane,Real Capital Markets,EnergyTown,Illinois,10107-3042,COMMERCIAL,1970
10104/a79eb,https://ubid.org/10019-176,"121,133",1,204154 NE Dogwood Lane,DLP Realty,EnergyTown,Illinois,10104-9311,COMMERCIAL,1968
10110/5a2e9,https://ubid.org/23155-186,"282,652",1,89714 W Hemlock Road,World Wide Land Transfer,EnergyTown,Illinois,10110-3735,COMMERCIAL,1978
10102/b5ce8,https://ubid.org/49349-217,"326,363",1,67980 E Elm Boulevard,HousingWire,EnergyTown,Illinois,10102-2549,COMMERCIAL,1941
10108/438f7,https://ubid.org/49288-0332,"322,333",3,166502 NE Hemlock Road,Nationwide Title Clearing,EnergyTown,Illinois,10108-7408,COMMERCIAL,1908
10105/142af,https://ubid.org/55289-447,"386,045",1,94598 W Clementine Highway,Platinum Realty,EnergyTown,Illinois,10105-7974,COMMERCIAL,1966
10106/576c0,https://ubid.org/36800-926,"208,071",1,244219 S Hawthorn Alley,US Appraisal Group,EnergyTown,Illinois,10106-4823,COMMERCIAL,1968
10101/f67d7,https://ubid.org/61727-053,"74,308",1,80827 NE Obama Court,The Menkiti Group,EnergyTown,Illinois,10101-1519,COMMERCIAL,1965
10110/8b1be,https://ubid.org/66116-234,"309,403",1,236988 N Cordia Way,Elite Pacific Properties,EnergyTown,Illinois,10110-5811,COMMERCIAL,1967
10102/b0a1a,https://ubid.org/48951-9012,"135,818",1,237605 E Tanoak Alley,Samuel Scott Financial Group,EnergyTown,Illinois,10102-2567,COMMERCIAL,1959
10110/13814,https://ubid.org/0093-7772,398407sf,1,240641 E Honeydew Highway,Professinal Home Buyers,EnergyTown,Illinois,10110-5818,COMMERCIAL,1975
10101/8d998,https://ubid.org/43734-002,"355,670",1,206941 SE Arthur Street,Maximum One Realty Greater Atlanta,EnergyTown,Illinois,10101-7951,COMMERCIAL,1984
10104/7cd66,https://ubid.org/67457-357,"193,843",1,205931 NE Incense Highway,Streetsense,EnergyTown,Illinois,10104-3836,COMMERCIAL,1963
10106/3ecb6,https://ubid.org/52584-115,"278,480",1,98457 N Fillmore Way,Boulder Creek Builders,EnergyTown,Illinois,10106-2302,COMMERCIAL,1965
10102/228e2,https://ubid.org/58118-0179,"107,487",1,66139 NE Mango Court,ATG Title,EnergyTown,Illinois,10102-4172,COMMERCIAL,1962
10108/cbf55,https://ubid.org/51285-275,"359,379",1,197211 NE Holly Loop,LGI Development,EnergyTown,Illinois,10108-2032,COMMERCIAL,1971
10109/b959b,https://ubid.org/62695-1001,"284,683",1,94390 W Hawthorn Road,Tim O'Brien Homes,EnergyTown,Illinois,10109-3632,COMMERCIAL,1978
10101/55160,https://ubid.org/30142-416,"299,174",1,3649 W Washington Way,McGeough Lamacchia Realty,EnergyTown,Illinois,10101-1632,COMMERCIAL,1980
10107/9728a,https://ubid.org/64117-643,333301 sq. ft,1,211374 NE Nixon Court,Bean Group,EnergyTown,Illinois,10107-7505,HOTELS/MOTELS,1925
10103/c94b4,https://ubid.org/46122-192,"148,791",1,1086 W Apricots Alley,Gorilla Capital,EnergyTown,Illinois,10103-1298,COMMERCIAL,1984
10110/91f8c,https://ubid.org/68151-4243,"273,132",1,187027 W Alder Avenue,1st Equity,EnergyTown,Illinois,10110-7241,COMMERCIAL,1988
10109/17b7e,https://ubid.org/53329-051,"305,438",1,212701 NW Polk Boulevard,Realty ONE Group,EnergyTown,Illinois,10109-1758,COMMERCIAL,1963
10108/7e35b,https://ubid.org/43406-0021,"155,963",1,117368 W Walnut Street,Asset Realty Group,EnergyTown,Illinois,10108-2197,COMMERCIAL,1962
10109/68ade,https://ubid.org/65862-161,"104,033",1,141047 W Johnson Street,Movoto,EnergyTown,Illinois,10109-3896,COMMERCIAL,1969
10109/21329,https://ubid.org/61245-145,"125,353",1,85848 NW Maple Loop,American Eagle Mortgage,EnergyTown,Illinois,10109-6838,COMMERCIAL,1970
10109/4550c,https://ubid.org/54868-0154,"236,260",1,214531 N Honeylocust Court,@Properties,EnergyTown,Illinois,10109-4816,COMMERCIAL,1981
10109/849b4,https://ubid.org/51811-363,"153,402",1,218041 NW Hawthorn Lane,Conservice,EnergyTown,Illinois,10109-5862,GARAGE/UNIMPROVED LAND,2012
10109/f8b70,https://ubid.org/48951-7094,"346,583",1,175795 E Juniper Lane,HomeSmart,EnergyTown,Illinois,10109-2485,COMMERCIAL,1963
10104/561df,https://ubid.org/42549-609,"312,475",1,139848 NE Plantain Avenue,MG Properties Group,EnergyTown,Illinois,10104-5521,COMMERCIAL,1954
10104/3bf94,https://ubid.org/68016-189,"382,676",1,68234 SE Incense Court,Pacific Union International,EnergyTown,Illinois,10104-3667,COMMERCIAL,1953
10110/a2b5d,https://ubid.org/0574-0150,"381,968",1,17430 E Cantaloupe Highway,Sperry Van Ness International,EnergyTown,Illinois,10110-6925,COMMERCIAL,1967
10103/4aa1d,https://ubid.org/49967-325,"338,350",1,83268 S Tyler Avenue,Asset Plus Companies,EnergyTown,Illinois,10103-9735,COMMERCIAL,1974
10110/76274,https://ubid.org/36987-1366,"103,958",1,41415 NE Ash Highway,Prudential Americana Group Realtors,EnergyTown,Illinois,10110-2587,COMMERCIAL,1991
10110/35cb1,https://ubid.org/0054-0019,"50,838",1,47081 SW Aspen Lane,ISGN,EnergyTown,Illinois,10110-5469,HOTELS/MOTELS,1926
10106/3ba7c,https://ubid.org/0264-9999,"290,553",1,21705 S Apricots Street,Kidder Mathews,EnergyTown,Illinois,10106-8005,COMMERCIAL,1961
10104/71c4c,https://ubid.org/63187-137,"246,691",1,179851 E Jefferson Lane,Levrose Commercial Real Estate,EnergyTown,Illinois,10104-8339,COMMERCIAL,1977
10101/9c91a,https://ubid.org/13537-349,"201,228",1,190412 S Jefferson Lane,Pro Teck Valuation Services,EnergyTown,Illinois,10101-8791,COMMERCIAL,1962
10110/77bc2,https://ubid.org/42248-104,"115,166",1,179201 SE Catalpa Loop,The Mount Vernon Company,EnergyTown,Illinois,10110-4268,COMMERCIAL,1969
10109/6e9e1,https://ubid.org/0409-7336,"223,085",1,195941 E Van Buren Avenue,Select Office Suites,EnergyTown,Illinois,10109-5530,COMMERCIAL,1975
10107/b3397,https://ubid.org/0062-5356,"371,165",1,85120 E Chestnut Court,Schmidt Real Estate,EnergyTown,Illinois,10107-1860,COMMERCIAL,1960
10107/c6285,https://ubid.org/50436-9949,"214,953",1,39443 SE Taft Boulevard,Oakbrook,EnergyTown,Illinois,10107-8357,COMMERCIAL,2002
10101/6fa4d,https://ubid.org/10191-1445,"95,526",1,90677 N Pears Highway,ERA Sunrise Realty,EnergyTown,Illinois,10101-8364,COMMERCIAL,1908
10108/c40ac,https://ubid.org/48951-3036,"316,430",1,17671 N McKinley Alley,Keller Williams Realty,EnergyTown,Illinois,10108-8428,COMMERCIAL,1989
10108/36315,https://ubid.org/68151-1742,"148,091",1,11887 W Cottonwood Court,CWS Corporate Leasing,EnergyTown,Illinois,10108-8243,RESIDENTIAL-MULTI FAMILY,1959
10105/2672f,https://ubid.org/59572-220,"234,015",1,133552 S Grapes Street,Occidental Management,EnergyTown,Illinois,10105-6555,COMMERCIAL,1965
10108/60dd2,https://ubid.org/49288-0277,"161,865",1,231480 SE Grant Court,Morris Hardwick Schneider/Landcastle Title,EnergyTown,Illinois,10108-7167,COMMERCIAL,1972
10102/58614,https://ubid.org/41250-247,"301,752",1,195939 N Sweetgum Loop,Capital Title of Texas,EnergyTown,Illinois,10102-3203,COMMERCIAL,1963
10102/f3076,https://ubid.org/49035-298,"351,216",1,88468 SE Sweetgum Lane,American Reporting,EnergyTown,Illinois,10102-8071,COMMERCIAL,1986
10105/a5acf,https://ubid.org/0409-4902,"53,769",1,161014 W Truman Lane,Real Freedom,EnergyTown,Illinois,10105-3879,COMMERCIAL,1978
10103/529b7,https://ubid.org/16729-139,"188,614",1,30326 W Buchanan Lane,Temporary Housing Directory,EnergyTown,Illinois,10103-9119,COMMERCIAL,1981
10106/4bdb7,https://ubid.org/51191-2046,"218,999",1,178923 W Cottonwood Lane,MileStone Community Builders,EnergyTown,Illinois,10106-4951,COMMERCIAL,1971
10104/8ce2f,https://ubid.org/0299-3913,"262,670",1,1997 NW Lime Way,Pangea Properties,EnergyTown,Illinois,10104-6653,COMMERCIAL,1971
10107/bcaf5,https://ubid.org/51201-200,"160,338",1,158345 W Chinkapin Court,Matt Martin Real Estate Management,EnergyTown,Illinois,10107-5482,COMMERCIAL,1972
10103/7c7c1,https://ubid.org/43553-3248,"339,827",1,150264 N Olive Loop,Celerity Ventures,EnergyTown,Illinois,10103-4656,COMMERCIAL,1962
10109/7562a,https://ubid.org/53808-0646,"250,134",1,56877 SW Taylor Road,Marketplace Homes,EnergyTown,Illinois,10109-2894,COMMERCIAL,1973
10103/b5966,https://ubid.org/51668-507,"346,023",6,230898 NW Juniper Lane,Apartment List,EnergyTown,Illinois,10103-5555,COMMERCIAL,1912
10107/72ae0,https://ubid.org/76472-1142,"286,853",6,158660 W Pine Avenue,Econohomes,EnergyTown,Illinois,10107-6003,COMMERCIAL,1909
10102/32301,https://ubid.org/67296-0581,"208,589",1,200367 N Aspen Highway,PropertyRate,EnergyTown,Illinois,10102-2660,COMMERCIAL CONDO,
10104/df976,https://ubid.org/0115-4411,"352,418",1,8035 E Papaya Avenue,Landmark Network,EnergyTown,Illinois,10104-6091,COMMERCIAL,1921
10102/e38f0,https://ubid.org/33992-8805,"92,739",1,38102 W Madison Lane,Memphis Invest,EnergyTown,Illinois,10102-4608,RESIDENTIAL-MULTI FAMILY,1927
10110/5982f,https://ubid.org/50593-006,"71,068",1,91646 SW Tanoak Court,ACT Appraisal,EnergyTown,Illinois,10110-2664,RESIDENTIAL-MULTI FAMILY,1927
10110/8c8af,https://ubid.org/0603-0524,"361,611",1,199664 S Palm Avenue,Innotion Enterprises,EnergyTown,Illinois,10110-9626,RESIDENTIAL-MULTI FAMILY,1941
10106/a19cc,https://ubid.org/63941-261,"248,238",1,153083 SE Polk Boulevard,The Force Realty,EnergyTown,Illinois,10106-6120,RESIDENTIAL-MULTI FAMILY,1917
10105/142c0,https://ubid.org/63941-950,"64,682",1,95045 S Plantain Court,PalmerHouse Properties,EnergyTown,Illinois,10105-6882,RESIDENTIAL-MULTI FAMILY,1923
10109/4eada,https://ubid.org/68828-094,"135,380",1,148735 E Honeylocust Lane,CoesterVMS,EnergyTown,Illinois,10109-3957,COMMERCIAL,1989
10108/2a3b0,https://ubid.org/41520-319,"173,219",1,103463 SE Pine Road,Hawaii Life,EnergyTown,Illinois,10108-8096,RESIDENTIAL-MULTI FAMILY,1924
10106/427f8,https://ubid.org/63323-193,"97,493",1,151463 N Sweetgum Street,Apex Home Loans,EnergyTown,Illinois,10106-9892,RESIDENTIAL-MULTI FAMILY,2001
10103/9e468,https://ubid.org/54868-5897,"390,336",1,194183 SE Birch Highway,Stress Free Property Management,EnergyTown,Illinois,10103-5080,CONDO,
10110/6dd4a,https://ubid.org/50181-0021,"91,355",1,137299 SW Hemlock Loop,Fairplay Financial,EnergyTown,Illinois,10110-9712,COMMERCIAL,1904
10104/1bd08,https://ubid.org/50730-8328,"139,384",1,97036 N Eisenhower Road,Nationwide Appraisal Network,EnergyTown,Illinois,10104-1863,RESIDENTIAL-MULTI FAMILY,0
10104/c0c16,https://ubid.org/57520-0035,"165,809",1,114328 W Grapefruit Court,Robert Paul Properties,EnergyTown,Illinois,10104-2347,COMMERCIAL,1972
10108/75932,https://ubid.org/50184-1031,"283,903",3,22429 W Mahogany Loop,Trulia,EnergyTown,Illinois,10108-9346,COMMERCIAL,1909
10109/55205,https://ubid.org/43742-0421,"285,795",1,120594 W Hayes Way,The Ruby Group,EnergyTown,Illinois,10109-9760,COMMERCIAL,1918
10110/9ca40,https://ubid.org/42887-001,"336,298",1,15135 S Arborvitae Boulevard,Valuation Management Group,EnergyTown,Illinois,10110-5087,COMMERCIAL,1961
10109/f76ba,https://ubid.org/0053-8132,"382,980",1,228511 NW Van Buren Street,Hipercept,EnergyTown,Illinois,10109-1487,COMMERCIAL,1988
10108/d2b1e,https://ubid.org/51079-938,"121,363",1,196903 E Ford Loop,Accurate Group,EnergyTown,Illinois,10108-6632,COMMERCIAL,1959
10108/e426c,https://ubid.org/64125-135,"392,035",1,154432 SW Apple Loop,Nest Realty,EnergyTown,Illinois,10108-8988,CONDO,
10102/4209b,https://ubid.org/69133-030,"94,719",1,108098 W Roosevelt Way,JWB Real Estate Companies,EnergyTown,Illinois,10102-2486,COMMERCIAL,1957
10105/28ccf,https://ubid.org/37000-202,"281,401",1,163777 SW Hayes Boulevard,Real Property Management,EnergyTown,Illinois,10105-6858,COMMERCIAL,2001
10108/10f0e,https://ubid.org/64117-177,"221,632",1,188145 SW Palm Way,Distinctive Properties,EnergyTown,Illinois,10108-6940,HOTELS/MOTELS,1922
10107/24321,https://ubid.org/55154-6989,"323,984",1,99676 N Oak Lane,Clear Title Agency of AZ,EnergyTown,Illinois,10107-4524,COMMERCIAL,1985
10103/eafdd,https://ubid.org/68084-832,"75,130",1,206960 S Guava Loop,Trust Field Services,EnergyTown,Illinois,10103-6457,HOTELS/MOTELS,1956
10103/43575,https://ubid.org/16590-136,"115,726",1,216971 NW True Way,GRS Group,EnergyTown,Illinois,10103-5749,HOTELS/MOTELS,1963
10110/c9bd3,https://ubid.org/49288-0824,240292 sq. ft.,1,190631 S Locust Lane,Renters Warehouse,EnergyTown,Illinois,10110-9828,COMMERCIAL,1940
10105/b6224,https://ubid.org/0268-6750,"250,518",1,25085 E Hemlock Highway,Reliant Realty,EnergyTown,Illinois,10105-6170,COMMERCIAL,1956
10110/cbc8e,https://ubid.org/47335-603,"187,229",1,202071 W Cantaloupe Highway,Meridian Pacific Properties,EnergyTown,Illinois,10110-7715,COMMERCIAL,1955
10102/2fed7,https://ubid.org/41595-6502,"68,026",1,166985 N Ash Court,Guaranteed Rate,EnergyTown,Illinois,10102-1159,COMMERCIAL,1964
10105/33b5d,https://ubid.org/55154-0743,"137,058",1,236248 NE Apples Avenue,JMA Properties,EnergyTown,Illinois,10105-9531,COMMERCIAL,1984
10104/ca2fa,https://ubid.org/0832-7124,"334,977",1,134273 SW Orange Street,NTP Wireless,EnergyTown,Illinois,10104-5033,COMMERCIAL,1962
10105/b15e7,https://ubid.org/60681-1106,"254,468",1,139068 NE Coolidge Loop,Teles Properties,EnergyTown,Illinois,10105-1800,COMMERCIAL,1983
10103/69b9f,https://ubid.org/54575-966,"319,176",1,118829 W Reagan Avenue,Kinder Reese,EnergyTown,Illinois,10103-6010,COMMERCIAL,1963
10107/908be,https://ubid.org/52125-258,"134,266",1,75381 NE Madison Road,Cal-American Homes,EnergyTown,Illinois,10107-6450,COMMERCIAL,1983
10103/b3ca4,https://ubid.org/0363-0350,"97,919",1,237608 S Grapes Street,ePropertySites.com,EnergyTown,Illinois,10103-6859,COMMERCIAL,2005
10108/ad0e2,https://ubid.org/36987-2026,"207,918",1,67271 SW Melon Boulevard,NathanTabor.com,EnergyTown,Illinois,10108-6983,COMMERCIAL,2006
10102/69847,https://ubid.org/33992-0529,"298,175",1,235306 NE Hazel Road,Urban Lending Solutions,EnergyTown,Illinois,10102-2922,COMMERCIAL,1941
10101/27d4b,https://ubid.org/63736-044,"288,029",1,16643 W Ford Alley,Keller Williams Capital Properties,EnergyTown,Illinois,10101-3986,COMMERCIAL,1977
10103/dbe92,https://ubid.org/37000-287,"117,962",1,184910 SE Melon Street,Real Capital Markets,EnergyTown,Illinois,10103-4111,RESIDENTIAL-MULTI FAMILY,1923
10109/ef4cb,https://ubid.org/0781-5720,"262,161",1,8656 SE Cypress Boulevard,DLP Realty,EnergyTown,Illinois,10109-4267,COMMERCIAL,1968
10101/ee51f,https://ubid.org/49288-0160,"336,155",1,244944 SE Taft Loop,World Wide Land Transfer,EnergyTown,Illinois,10101-6469,COMMERCIAL,1989
10110/b59c7,https://ubid.org/11822-0490,"283,500",1,106522 SW Pineapple Lane,HousingWire,EnergyTown,Illinois,10110-7341,COMMERCIAL,1974
10110/b0483,https://ubid.org/0406-0363,"365,531",1,244081 E Papaya Avenue,Nationwide Title Clearing,EnergyTown,Illinois,10110-9324,COMMERCIAL,1950
10105/fdabc,https://ubid.org/76439-120,"238,015",1,58478 N Polk Loop,Platinum Realty,EnergyTown,Illinois,10105-6431,COMMERCIAL,1958
10110/e77c3,https://ubid.org/23916-1234,"142,730",1,211348 E Kennedy Street,US Appraisal Group,EnergyTown,Illinois,10110-1558,COMMERCIAL,2002
10105/c1dd0,https://ubid.org/49738-536,"196,057",1,162926 S Citron Boulevard,The Menkiti Group,EnergyTown,Illinois,10105-9644,COMMERCIAL,1913
10102/53bcc,https://ubid.org/13537-111,"337,327",1,43200 N Carissa Boulevard,Elite Pacific Properties,EnergyTown,Illinois,10102-7533,COMMERCIAL,1969
10108/4c062,https://ubid.org/63287-425,"128,696",1,80535 W Fillmore Avenue,Samuel Scott Financial Group,EnergyTown,Illinois,10108-6485,COMMERCIAL,1971
10105/4be8d,https://ubid.org/0064-1050,"352,478",1,217657 E Banana Road,Professinal Home Buyers,EnergyTown,Illinois,10105-8393,COMMERCIAL,1924
10110/94692,https://ubid.org/0904-6221,"59,501",1,101963 S Van Buren Street,Maximum One Realty Greater Atlanta,EnergyTown,Illinois,10110-4019,HOTELS/MOTELS,1928
10110/bc316,https://ubid.org/43353-662,"378,745",1,80310 N Myrtle Court,Streetsense,EnergyTown,Illinois,10110-6067,COMMERCIAL,1964
10108/f5eea,https://ubid.org/51389-255,"389,401",1,223819 NW Pierce Way,Boulder Creek Builders,EnergyTown,Illinois,10108-1244,COMMERCIAL CONDO,
10105/f1f2e,https://ubid.org/62839-0808,"126,374",1,197892 NW Carissa Court,ATG Title,EnergyTown,Illinois,10105-2179,RESIDENTIAL-MULTI FAMILY,1919
10106/fdb45,https://ubid.org/0009-0271,"51,843",1,115504 S Guava Avenue,LGI Development,EnergyTown,Illinois,10106-4109,RESIDENTIAL-MULTI FAMILY,1909
10108/8ac1a,https://ubid.org/59351-0318,"146,667",1,244589 SW True Street,Tim O'Brien Homes,EnergyTown,Illinois,10108-3112,RESIDENTIAL-MULTI FAMILY,1926
10101/3f4f9,https://ubid.org/0019-9885,"235,166",1,143991 SW Harrison Way,McGeough Lamacchia Realty,EnergyTown,Illinois,10101-7553,RESIDENTIAL-MULTI FAMILY,0
10102/efcbd,https://ubid.org/55154-2063,"88,258",1,221447 NE Pear Boulevard,Bean Group,EnergyTown,Illinois,10102-9150,RESIDENTIAL-MULTI FAMILY,1918
10109/5500f,https://ubid.org/57687-241,"200,723",1,62278 SW Apples Court,Gorilla Capital,EnergyTown,Illinois,10109-7024,RESIDENTIAL-MULTI FAMILY,1920
10101/528fc,https://ubid.org/0904-6137,"210,140",1,98737 NW Van Buren Court,1st Equity,EnergyTown,Illinois,10101-1548,COMMERCIAL,0
10110/c74be,https://ubid.org/36987-1696,"388,106",1,187913 SE Apple Way,Realty ONE Group,EnergyTown,Illinois,10110-6183,HOTELS/MOTELS,1968
10106/b98be,https://ubid.org/69152-0018,"169,687",1,202626 W Olive Road,Asset Realty Group,EnergyTown,Illinois,10106-8096,HOTELS/MOTELS,1960
10108/5d71a,https://ubid.org/68788-9214,"254,429",1,17837 SW Birch Way,Movoto,EnergyTown,Illinois,10108-9758,HOTELS/MOTELS,1964
10110/c2353,https://ubid.org/59630-821,"392,952",1,149484 N Coolidge Highway,American Eagle Mortgage,EnergyTown,Illinois,10110-4583,COMMERCIAL,1909
10103/3de2a,https://ubid.org/36987-3143,"307,659",1,199582 E Maple Highway,@Properties,EnergyTown,Illinois,10103-3267,CONDO,
10108/f6ce6,https://ubid.org/49349-298,"206,691",1,138030 SE Kennedy Street,Conservice,EnergyTown,Illinois,10108-7794,COMMERCIAL,1962
10109/2a3ea,https://ubid.org/57955-5038,"160,653",3,66777 N Pear Alley,HomeSmart,EnergyTown,Illinois,10109-5867,COMMERCIAL,1991
10104/6ed43,https://ubid.org/60429-103,"397,687",1,170273 SW Redwood Highway,MG Properties Group,EnergyTown,Illinois,10104-4559,RESIDENTIAL-MULTI FAMILY,1952
10106/76d4a,https://ubid.org/63941-183,"250,805",1,136273 W Grapefruit Highway,Pacific Union International,EnergyTown,Illinois,10106-5430,COMMERCIAL,1991
10105/67c36,https://ubid.org/0228-2837,"322,971",1,61537 SE Pineapple Highway,Sperry Van Ness International,EnergyTown,Illinois,10105-2899,COMMERCIAL,1968
10105/5fa0a,https://ubid.org/54868-5160,"297,375",1,179234 SE Juniper Way,Asset Plus Companies,EnergyTown,Illinois,10105-1016,COMMERCIAL,1970
10105/77ead,https://ubid.org/49348-006,"387,617",1,76451 N Honeylocust Court,Prudential Americana Group Realtors,EnergyTown,Illinois,10105-8846,COMMERCIAL,1981
10108/9e9d8,https://ubid.org/55289-823,"247,361",1,31707 W Cantaloupe Loop,ISGN,EnergyTown,Illinois,10108-4342,COMMERCIAL,1974
10102/15661,https://ubid.org/0472-1105,"311,618",1,181742 SW Walnut Way,Kidder Mathews,EnergyTown,Illinois,10102-6740,COMMERCIAL,1921
10106/4875d,https://ubid.org/0185-0145,"73,238",1,23901 E Pineapple Road,Levrose Commercial Real Estate,EnergyTown,Illinois,10106-6999,COMMERCIAL,1959
10105/f9e50,https://ubid.org/61254-1001,"266,330",1,165141 S Kennedy Lane,Pro Teck Valuation Services,EnergyTown,Illinois,10105-2788,COMMERCIAL,1988
10108/a1287,https://ubid.org/0603-0024,"239,314",1,203344 SE Carissa Road,The Mount Vernon Company,EnergyTown,Illinois,10108-5831,COMMERCIAL,2007
10106/c29bc,https://ubid.org/37000-841,"347,415",1,213684 NE Pierce Avenue,Select Office Suites,EnergyTown,Illinois,10106-8797,COMMERCIAL,1972
10101/41bb1,https://ubid.org/52125-357,"388,473",1,236410 NW Cedar Way,Schmidt Real Estate,EnergyTown,Illinois,10101-6831,HOTELS/MOTELS,1944
10106/f2249,https://ubid.org/2049408,"84,149",1,167885 SW Elm Alley,Oakbrook,EnergyTown,Illinois,10106-4962,COMMERCIAL,1963
10106/55425,https://ubid.org/60681-1602,"169,765",1,75548 S Mango Boulevard,ERA Sunrise Realty,EnergyTown,Illinois,10106-2227,COMMERCIAL,1923
10109/bbae0,https://ubid.org/49349-330,"244,227",1,96925 SE True Lane,Keller Williams Realty,EnergyTown,Illinois,10109-3901,COMMERCIAL,1964
10109/4c951,https://ubid.org/0603-3340,"338,154",1,67194 NW Mahogany Avenue,CWS Corporate Leasing,EnergyTown,Illinois,10109-4805,HOTELS/MOTELS,1927
10104/b5f46,https://ubid.org/66215-401,"353,448",1,151935 N Fillmore Street,Occidental Management,EnergyTown,Illinois,10104-3163,COMMERCIAL,1959
10107/abab4,https://ubid.org/55154-3938,"270,014",1,113976 N Lincoln Highway,Morris Hardwick Schneider/Landcastle Title,EnergyTown,Illinois,10107-7700,COMMERCIAL,1979
10102/cdc40,https://ubid.org/59310-204,"120,932",1,45612 E Garfield Way,Capital Title of Texas,EnergyTown,Illinois,10102-9747,COMMERCIAL,1929
10102/d9050,https://ubid.org/52125-260,"263,077",1,137291 SW Buchanan Highway,American Reporting,EnergyTown,Illinois,10102-5447,RESIDENTIAL-MULTI FAMILY,1932
10107/65e4a,https://ubid.org/50795-4001,"320,699",1,103731 E Cypress Highway,Real Freedom,EnergyTown,Illinois,10107-8588,RESIDENTIAL-MULTI FAMILY,2002
10107/3a8e7,https://ubid.org/0409-2066,"215,904",1,240367 S Cordia Court,Temporary Housing Directory,EnergyTown,Illinois,10107-9150,COMMERCIAL,1956
10108/64fa4,https://ubid.org/0065-0643,381980 sf,10,89391 NE Roosevelt Street,MileStone Community Builders,EnergyTown,Illinois,10108-7483,COMMERCIAL,1875
10110/2ca1e,https://ubid.org/61919-478,"317,353",1,31553 S Buchanan Road,Pangea Properties,EnergyTown,Illinois,10110-9396,RESIDENTIAL-MULTI FAMILY,1978
10108/6236c,https://ubid.org/41163-186,"50,477",1,92200 W Truman Loop,Matt Martin Real Estate Management,EnergyTown,Illinois,10108-8383,COMMERCIAL,1910
10106/11169,https://ubid.org/43553-3248,"76,497",1,165348 E Taylor Alley,Celerity Ventures,EnergyTown,Illinois,10106-3406,COMMERCIAL,2012
10106/2cb39,https://ubid.org/54868-4030,"187,605",1,13985 SE Van Buren Street,Marketplace Homes,EnergyTown,Illinois,10106-8929,COMMERCIAL,1904
10102/8dfc7,https://ubid.org/13668-120,"149,252",1,120376 SW Wilson Boulevard,Apartment List,EnergyTown,Illinois,10102-6267,CONDO,
10101/36bfc,https://ubid.org/13537-133,"302,514",1,199110 W Myrtle Boulevard,Econohomes,EnergyTown,Illinois,10101-9430,RESIDENTIAL-MULTI FAMILY,2002
10110/21619,https://ubid.org/21749-151,"373,392",1,122080 E Oak Way,PropertyRate,EnergyTown,Illinois,10110-8070,RESIDENTIAL-MULTI FAMILY,2004
10105/67bb0,https://ubid.org/68382-071,"88,389",1,189035 SE Larch Lane,Landmark Network,EnergyTown,Illinois,10105-5219,CONDO,
10108/67de8,https://ubid.org/37808-437,"230,741",1,142115 W Pineapple Way,Memphis Invest,EnergyTown,Illinois,10108-4608,CONDO,
10103/a7c22,https://ubid.org/0409-3178,"349,971",1,3755 SE Johnson Court,ACT Appraisal,EnergyTown,Illinois,10103-3674,CONDO,
10107/9d329,https://ubid.org/35000-008,"253,772",1,10699 S Redwood Lane,Innotion Enterprises,EnergyTown,Illinois,10107-8716,CONDO,
10106/66eab,https://ubid.org/30142-302,"212,618",1,72450 SE Tanoak Road,The Force Realty,EnergyTown,Illinois,10106-8952,RESIDENTIAL-MULTI FAMILY,1966
10104/d3d49,https://ubid.org/98132-742,"324,573",1,46768 N Oak Road,PalmerHouse Properties,EnergyTown,Illinois,10104-2210,RESIDENTIAL-MULTI FAMILY,1980
10104/29b33,https://ubid.org/61715-104,"56,335",1,63924 S Yew Highway,CoesterVMS,EnergyTown,Illinois,10104-4769,COMMERCIAL,1999
10104/46025,https://ubid.org/54868-4617,"150,490",1,200869 S Incense Way,Hawaii Life,EnergyTown,Illinois,10104-7106,CONDO,
10107/6a1f6,https://ubid.org/53807-123,"342,087",1,145903 S Jackson Loop,Apex Home Loans,EnergyTown,Illinois,10107-1226,RESIDENTIAL-MULTI FAMILY,1965
10105/4b073,https://ubid.org/68391-500,"268,758",1,22500 E Spruce Court,Stress Free Property Management,EnergyTown,Illinois,10105-1995,RESIDENTIAL-MULTI FAMILY,1965
10110/62464,https://ubid.org/52125-265,"100,687",1,213859 W Tanoak Court,Fairplay Financial,EnergyTown,Illinois,10110-9750,RESIDENTIAL-MULTI FAMILY,1930
10104/53e64,https://ubid.org/64141-019,"346,940",1,33080 SE True Loop,Nationwide Appraisal Network,EnergyTown,Illinois,10104-1169,HOTELS/MOTELS,1965
10109/b28a9,https://ubid.org/76237-243,"125,112",1,159546 SW Oak Highway,Robert Paul Properties,EnergyTown,Illinois,10109-3480,RESIDENTIAL-MULTI FAMILY,1936
10105/19a7c,https://ubid.org/60905-0003,"339,416",1,27407 W Clinton Way,Trulia,EnergyTown,Illinois,10105-8084,RESIDENTIAL-MULTI FAMILY,2002
10109/5a6d5,https://ubid.org/0268-0806,"293,421",1,207224 W Clinton Boulevard,The Ruby Group,EnergyTown,Illinois,10109-5381,HOTELS/MOTELS,2001
10109/eb8d0,https://ubid.org/63629-4929,"388,041",3,148624 SW Clinton Loop,Valuation Management Group,EnergyTown,Illinois,10109-6487,COMMERCIAL,1930
10104/70271,https://ubid.org/0409-3795,"333,353",1,159643 NW True Avenue,Hipercept,EnergyTown,Illinois,10104-4701,CONDO,
10108/1b446,https://ubid.org/65342-1379,"235,225",1,25104 NW Arthur Lane,Accurate Group,EnergyTown,Illinois,10108-4108,CONDO,
10103/a6deb,https://ubid.org/0944-2833,"271,570",1,58847 W Lincoln Lane,Nest Realty,EnergyTown,Illinois,10103-2443,COMMERCIAL CONDO,
10102/1f175,https://ubid.org/55316-154,"142,128",1,204239 NW Wilson Loop,JWB Real Estate Companies,EnergyTown,Illinois,10102-7194,COMMERCIAL,1973
10106/a3685,https://ubid.org/21695-659,"160,444",1,114186 SE Obama Road,Real Property Management,EnergyTown,Illinois,10106-7986,COMMERCIAL,1967
10108/e225d,https://ubid.org/53950-7007,"234,977",1,164223 SW Guava Loop,Distinctive Properties,EnergyTown,Illinois,10108-6807,COMMERCIAL,1969
10108/23359,https://ubid.org/39338-1072,"382,843",1,114234 NW Bush Loop,Clear Title Agency of AZ,EnergyTown,Illinois,10108-5455,COMMERCIAL,1970
10108/7a748,https://ubid.org/0781-2164,"271,215",1,132432 W McKinley Loop,Trust Field Services,EnergyTown,Illinois,10108-2605,COMMERCIAL,1976
10109/6e78b,https://ubid.org/58232-4026,"303,366",1,52270 SE Elm Alley,GRS Group,EnergyTown,Illinois,10109-2951,COMMERCIAL,1980
10110/99c47,https://ubid.org/1048644,"364,578",1,136864 W Apples Way,Renters Warehouse,EnergyTown,Illinois,10110-5685,COMMERCIAL,1981
10106/69ccc,https://ubid.org/0409-4168,"67,421",1,159684 W Ford Way,Reliant Realty,EnergyTown,Illinois,10106-5809,COMMERCIAL,1964
10105/6b7c3,https://ubid.org/50436-6041,"371,595",1,108883 E Filbert Road,Meridian Pacific Properties,EnergyTown,Illinois,10105-4759,HOTELS/MOTELS,1962
10104/7519f,https://ubid.org/35356-653,"115,886",1,71395 N Horsechestnut Highway,Guaranteed Rate,EnergyTown,Illinois,10104-8687,COMMERCIAL,1981
10104/9cd14,https://ubid.org/61941-0052,"357,695",1,66883 SW Date Street,JMA Properties,EnergyTown,Illinois,10104-3983,HOTELS/MOTELS,1982
10108/7888c,https://ubid.org/24794-224,"54,718",1,74477 SW Honeylocust Road,NTP Wireless,EnergyTown,Illinois,10108-8429,HOTELS/MOTELS,1967
10107/42314,https://ubid.org/0363-0300,"377,323",1,31654 S Olive Lane,Teles Properties,EnergyTown,Illinois,10107-2780,COMMERCIAL,1981
10109/afa2e,https://ubid.org/68472-091,"93,436",1,172390 NE Hayes Avenue,Kinder Reese,EnergyTown,Illinois,10109-7580,COMMERCIAL,1926
10105/73066,https://ubid.org/0781-3179,"351,018",1,153897 E Carissa Court,Cal-American Homes,EnergyTown,Illinois,10105-9243,COMMERCIAL,1979
10107/6f0e7,https://ubid.org/37205-752,"333,958",1,232993 SE Eisenhower Alley,ePropertySites.com,EnergyTown,Illinois,10107-6943,COMMERCIAL,1980
10101/5c1d9,https://ubid.org/65044-9944,"166,581",1,22214 N Pineapple Court,NathanTabor.com,EnergyTown,Illinois,10101-7282,COMMERCIAL,1985
10106/b1e7f,https://ubid.org/56062-213,"362,883",1,239342 NW Roosevelt Loop,Urban Lending Solutions,EnergyTown,Illinois,10106-4097,COMMERCIAL,1950
10106/f1d83,https://ubid.org/51531-4161,"378,701",1,168893 E Johnson Way,Keller Williams Capital Properties,EnergyTown,Illinois,10106-9237,COMMERCIAL,1954
10105/added,https://ubid.org/45167-167,"345,669",1,188620 SE Lemon Street,Real Capital Markets,EnergyTown,Illinois,10105-9486,COMMERCIAL,1964
10101/4332d,https://ubid.org/49514-253,"104,657",1,80678 NW Pineapple Avenue,DLP Realty,EnergyTown,Illinois,10101-3961,COMMERCIAL,1969
10103/5cca3,https://ubid.org/13925-506,"245,179",1,158979 NE Myrtle Way,World Wide Land Transfer,EnergyTown,Illinois,10103-1427,COMMERCIAL,1929
10106/43ccc,https://ubid.org/53346-1343,"228,634",1,81178 SW Olive Highway,HousingWire,EnergyTown,Illinois,10106-3927,COMMERCIAL,1987
10103/e3bea,https://ubid.org/52959-739,"323,523",1,85890 N Ash Road,Nationwide Title Clearing,EnergyTown,Illinois,10103-9836,COMMERCIAL,1921
10104/87ce6,https://ubid.org/58668-2901,"157,195",1,51616 NW Harrison Street,Platinum Realty,EnergyTown,Illinois,10104-2116,COMMERCIAL,1959
10105/26c8f,https://ubid.org/55154-3396,"150,208",1,165382 W Chestnut Street,US Appraisal Group,EnergyTown,Illinois,10105-3212,COMMERCIAL,1910
10107/6ec06,https://ubid.org/61047-818,"99,405",1,118538 NW Washington Avenue,The Menkiti Group,EnergyTown,Illinois,10107-1806,COMMERCIAL,1968
10101/def8d,https://ubid.org/49349-021,"335,901",1,31685 SE Melon Lane,Elite Pacific Properties,EnergyTown,Illinois,10101-8377,COMMERCIAL,1982
10107/6e4da,https://ubid.org/54868-3467,"291,525",1,169194 W Birch Court,Samuel Scott Financial Group,EnergyTown,Illinois,10107-7428,COMMERCIAL,1988
10105/4eef8,https://ubid.org/68814-111,"385,900",1,83997 W Cordia Way,Professinal Home Buyers,EnergyTown,Illinois,10105-9075,COMMERCIAL,1986
10105/c3f95,https://ubid.org/40042-015,"326,251",1,41342 E Hawthorn Road,Maximum One Realty Greater Atlanta,EnergyTown,Illinois,10105-1727,COMMERCIAL CONDO,
10110/72856,https://ubid.org/43269-845,"290,191",1,32998 SW Adams Street,Streetsense,EnergyTown,Illinois,10110-3015,HOTELS/MOTELS,1928
10101/4aea9,https://ubid.org/16252-572,"302,708",1,166373 S Cottonwood Court,Boulder Creek Builders,EnergyTown,Illinois,10101-7698,COMMERCIAL,1911
10103/1fa3a,https://ubid.org/66336-663,"136,154",1,76194 NW Hemlock Highway,ATG Title,EnergyTown,Illinois,10103-8317,COMMERCIAL,1982
10106/a1b27,https://ubid.org/36987-2959,"296,910",1,97743 NE Monroe Road,LGI Development,EnergyTown,Illinois,10106-3012,COMMERCIAL,1983
10102/e53b2,https://ubid.org/36987-1284,"326,269",1,170082 NW Pine Lane,Tim O'Brien Homes,EnergyTown,Illinois,10102-1604,COMMERCIAL,1993
10109/6df49,https://ubid.org/50436-9933,"82,535",1,188036 SW Dogwood Avenue,McGeough Lamacchia Realty,EnergyTown,Illinois,10109-6523,COMMERCIAL,1922
10101/74cd0,https://ubid.org/67544-655,"155,648",1,100644 SE Wilson Avenue,Bean Group,EnergyTown,Illinois,10101-2774,COMMERCIAL,1907
10106/28929,https://ubid.org/0268-0705,"213,345",1,180840 SW Cottonwood Court,Gorilla Capital,EnergyTown,Illinois,10106-2771,COMMERCIAL,1931
10103/d02b7,https://ubid.org/20276-814,"179,944",1,72611 W Date Lane,1st Equity,EnergyTown,Illinois,10103-2777,COMMERCIAL,1936
10108/e6a79,https://ubid.org/64578-0112,"98,406",1,96477 SW Peach Loop,Realty ONE Group,EnergyTown,Illinois,10108-9371,RESIDENTIAL-MULTI FAMILY,1912
10101/2417d,https://ubid.org/40032-312,"330,369",1,4455 N Ash Lane,Asset Realty Group,EnergyTown,Illinois,10101-7497,COMMERCIAL,1982
10106/e6a4d,https://ubid.org/0536-3305,"353,885",1,40486 SE Clinton Highway,Movoto,EnergyTown,Illinois,10106-9149,COMMERCIAL,1991
10107/edab1,https://ubid.org/55910-371,"198,717",1,162766 SE Hemlock Lane,American Eagle Mortgage,EnergyTown,Illinois,10107-1562,COMMERCIAL,1897
10102/53af9,https://ubid.org/63629-1463,"285,660",1,98775 N Lime Boulevard,@Properties,EnergyTown,Illinois,10102-4473,COMMERCIAL,1986
10110/7dff2,https://ubid.org/68089-004,"246,311",1,241932 S Hazel Avenue,Conservice,EnergyTown,Illinois,10110-2189,COMMERCIAL,1934
10108/e4265,https://ubid.org/54799-565,"367,192",3,243915 NW Apples Alley,HomeSmart,EnergyTown,Illinois,10108-7544,COMMERCIAL,1917
10101/39de6,https://ubid.org/54868-6105,"179,269",6,2187 SW Basswood Court,MG Properties Group,EnergyTown,Illinois,10101-9691,COMMERCIAL,1982
10102/c98e5,https://ubid.org/59535-1051,"228,013",1,244939 W Birch Court,Pacific Union International,EnergyTown,Illinois,10102-7526,COMMERCIAL,1999
10101/43c28,https://ubid.org/15240-0001,"197,135",1,105206 N Alder Court,Sperry Van Ness International,EnergyTown,Illinois,10101-5103,COMMERCIAL,1986
10103/4eb74,https://ubid.org/60429-119,"54,433",1,6379 SW Guava Road,Asset Plus Companies,EnergyTown,Illinois,10103-1897,HOTELS/MOTELS,1919
10104/fba7a,https://ubid.org/0904-5990,"360,367",1,76360 SE Spruce Court,Prudential Americana Group Realtors,EnergyTown,Illinois,10104-2372,CONDO,
10102/6032c,https://ubid.org/41190-619,"399,578",1,206422 NW Carissa Way,ISGN,EnergyTown,Illinois,10102-6958,CONDO,
10107/30f5d,https://ubid.org/0268-1455,"340,889",1,200054 NE Apple Avenue,Kidder Mathews,EnergyTown,Illinois,10107-9387,RESIDENTIAL-MULTI FAMILY,2004
10102/ee305,https://ubid.org/48951-8154,"311,692",1,67793 NW Dogwood Alley,Levrose Commercial Real Estate,EnergyTown,Illinois,10102-6936,CONDO,
10109/4c1c3,https://ubid.org/66467-9790,"104,504",1,34030 NW Elm Lane,Pro Teck Valuation Services,EnergyTown,Illinois,10109-3263,CONDO,
10108/c2dbd,https://ubid.org/24338-611,"321,284",10,66466 W Grant Alley,The Mount Vernon Company,EnergyTown,Illinois,10108-7004,RESIDENTIAL-MULTI FAMILY,1880
10103/572bc,https://ubid.org/55681-215,92346 sf,1,44871 SW Orange Highway,Select Office Suites,EnergyTown,Illinois,10103-7915,RESIDENTIAL-MULTI FAMILY,0
10102/fa43a,https://ubid.org/36800-852,"353,085",1,11651 SW Tanoak Lane,Schmidt Real Estate,EnergyTown,Illinois,10102-7634,CONDO,
10108/6bb0c,https://ubid.org/98132-880,"254,589",1,69516 NW Reagan Boulevard,Oakbrook,EnergyTown,Illinois,10108-3343,RESIDENTIAL-MULTI FAMILY,1964
10108/75473,https://ubid.org/49288-0442,"242,237",1,25374 S Melon Street,ERA Sunrise Realty,EnergyTown,Illinois,10108-4399,RESIDENTIAL-MULTI FAMILY,2008
10102/971d8,https://ubid.org/49738-462,"344,288",1,139173 N Mandarin Avenue,Keller Williams Realty,EnergyTown,Illinois,10102-9320,HOTELS/MOTELS,1961
10101/7ba4d,https://ubid.org/55319-326,"224,342",1,187329 SE Citron Lane,CWS Corporate Leasing,EnergyTown,Illinois,10101-4431,CONDO,
10108/2d867,https://ubid.org/54868-4791,"236,377",1,15581 SW Sycamore Court,Occidental Management,EnergyTown,Illinois,10108-9812,CONDO,